OBJECT B                
1 51825U 22019B   24073.86177173  .00009657  00000+0  46088-3 0  9996
2 51825  97.4378 146.5247 0014808 208.2367 151.8066 15.19174502112746
